format  = 'OEF2.0'       ! file format
rectype = 'ML'           ! record type (1L/ML)
refsys  = ECLM J2000     ! default reference system
END_OF_HEADER
2023BU
! Keplerian elements: a, e, i, long. node, arg. peric., mean anomaly
 KEP   9.8550832586249126E-01  7.4731950252378804E-02   2.6869796826633 306.4698006054615 273.9524164036569  2.7327118590670869E+02
 MJD     59969.690672296 TDT
 MAG  29.699  0.150
! Non-gravitational parameters: model used, number of model parameters, dimension
 LSP   0  0    6
! PERIHELION   9.1185936668083045E-01
! APHELION   1.0591572850441522E+00
! ANODE  -4.1412635433670020E-02
! DNODE   3.6269370925008204E-04
! MOID   1.8138334131846196E-04
! PERIOD   3.5734595742423261E+02
! PHA F
! VINFTY     2.5911994765898
! U_PAR 1.4
! ORB_TYPE Aten  
! RMS    2.77580E-08   1.45275E-08   6.99820E-07   1.78338E-07   2.14029E-05   2.17338E-05
 COV   7.705076646230640E-16  5.769627146418815E-17  5.320616140990013E-17
 COV  -2.396009710045320E-17 -5.935716885319342E-13  6.028839795096682E-13
 COV   2.110477023833320E-16 -7.350130390761975E-16 -1.684225687885307E-16
 COV  -3.165939425122399E-14  5.625653347590324E-14  4.897482160601301E-13
 COV   2.024560505476352E-14 -1.432287132831121E-13  3.935502150397526E-14
 COV   3.180432903354446E-14 -4.234726691562155E-15 -4.685156734756132E-14
 COV   4.580839949083441E-10 -4.637670219650116E-10  4.723570952974292E-10
 COR   1.000000000000000E+00  1.430767124514772E-01  2.738968355257478E-03
 COR  -4.840129407014120E-03 -9.991073125753267E-01  9.993325657513621E-01
 COR   9.999999999999999E-01 -7.229667064021035E-02 -6.500800730674480E-02
 COR  -1.018215556084704E-01  1.781752724555304E-01  9.999999999999999E-01
 COR   1.622188096414515E-01 -9.562492333152796E-03  2.587488933504481E-03
 COR   1.000000000000000E+00 -1.109455042315518E-03 -1.208775874676190E-02
 COR   1.000000000000000E+00 -9.969929387521235E-01  1.000000000000000E+00
